[{"OBJECT_NAME":"STARLINK-6060","OBJECT_ID":"2023-078AD","EPOCH":"2026-03-09T21:17:56.872320","MEAN_MOTION":14.98332481,"ECCENTRICITY":0.00029192,"INCLINATION":70.0005,"RA_OF_ASC_NODE":323.9385,"ARG_OF_PERICENTER":268.0056,"MEAN_ANOMALY":92.0768,"EPHEMERIS_TYPE":0,"CLASSIFICATION_TYPE":"U","NORAD_CAT_ID":56794,"ELEMENT_SET_NO":999,"REV_AT_EPOCH":15320,"BSTAR":-3.3518413e-5,"MEAN_MOTION_DOT":-4.93e-6,"MEAN_MOTION_DDOT":0},{"OBJECT_NAME":"KORSAT-2","OBJECT_ID":"2024-247A","EPOCH":"2026-03-09T09:51:24.769440","MEAN_MOTION":14.99271316,"ECCENTRICITY":0.00097734,"INCLINATION":45.4085,"RA_OF_ASC_NODE":225.0391,"ARG_OF_PERICENTER":57.7708,"MEAN_ANOMALY":302.4117,"EPHEMERIS_TYPE":0,"CLASSIFICATION_TYPE":"U","NORAD_CAT_ID":62377,"ELEMENT_SET_NO":999,"REV_AT_EPOCH":6659,"BSTAR":0.00043497982,"MEAN_MOTION_DOT":5.163e-5,"MEAN_MOTION_DDOT":0}]
