STARLINK-6060           
1 56794U 23078AD  26068.88746380 -.00000493  00000+0 -33518-4 0  9998
2 56794  70.0005 323.9385 0002919 268.0056  92.0768 14.98332481153202
KORSAT-2                
1 62377U 24247A   26068.41070335  .00005163  00000+0  43498-3 0  9994
2 62377  45.4085 225.0391 0009773  57.7708 302.4117 14.99271316 66592
